JILIN-1 GAOFEN 03D51    
1 54252U 22155B   26201.30878458  .00038015  00000+0  38396-3 0  9995
2 54252  97.6265 348.7494 0004643 213.0573 147.0396 15.65242674204921
JILIN-1 GAOFEN 03D53    
1 54253U 22155C   26201.32181056  .00022794  00000+0  34545-3 0  9998
2 54253  97.6256 343.8782 0005160 229.9890 130.0910 15.54638972204631
JILIN-1 GAOFEN 03D52    
1 54255U 22155E   26201.30642013  .00032540  00000+0  36838-3 0  9990
2 54255  97.6240 346.9326 0004026 226.9446 133.1475 15.62358432204873
JILIN-1 GAOFEN 03D50    
1 54690U 22167J   26201.31288648  .00006223  00000+0  18507-3 0  9999
2 54690  97.6864  10.5305 0004736   4.2223 355.9059 15.35124183200431
JILIN-1 GAOFEN 03D47    
1 54692U 22167L   26201.31917694  .00005958  00000+0  18129-3 0  9995
2 54692  97.6961  12.2758 0007329  12.2895 347.8525 15.34403264200423
JILIN-1 GAOFEN 03D49    
1 54694U 22167N   26201.32248013  .00006998  00000+0  18883-3 0  9992
2 54694  97.6838  12.9577 0005637  33.4027 326.7572 15.38114438200587
JILIN-1 GAOFEN 03D48    
1 54695U 22167P   26201.30298873  .00006457  00000+0  18747-3 0  9999
2 54695  97.6910  12.2500 0005968  12.9421 347.1974 15.35857425200473
JILIN GAOFEN OBJECT A   
1 68691U 26080A   26198.71960546  .00001863  00000+0  12114-3 0  9999
2 68691  97.6607 274.1951 0010995 325.9072  34.1449 15.09211185 14269
JILIN GAOFEN OBJECT B   
1 68692U 26080B   26201.22205599  .00003003  00000+0  19398-3 0  9990
2 68692  97.6582 276.7043 0015571 294.6551  65.3055 15.08926913 14643
JILIN GAOFEN OBJECT C   
1 68693U 26080C   26198.71884003  .00001932  00000+0  12646-3 0  9991
2 68693  97.6590 274.1766 0013165 305.9926  54.0081 15.08910570 14260
JILIN GAOFEN OBJECT D   
1 68694U 26080D   26201.28899934  .00003014  00000+0  19434-3 0  9993
2 68694  97.6646 276.8496 0016186 306.5146  53.4591 15.08986117 14639
JILIN GAOFEN OBJECT E   
1 68695U 26080E   26201.27081472  .00002468  00000+0  16016-3 0  9998
2 68695  97.6629 276.8504 0013405 317.5507  42.4683 15.08947563 14615
JILIN GAOFEN OBJECT F   
1 68696U 26080F   26201.33620405  .00002354  00000+0  15308-3 0  9998
2 68696  97.6600 276.8820 0012065 320.1807  39.8535 15.08931534 14628
JILIN GAOFEN OBJECT G   
1 68697U 26080G   26201.25599610  .00002211  00000+0  14398-3 0  9993
2 68697  97.6642 276.8891 0014298 316.7046  43.3057 15.08921884 14614
JILIN GAOFEN OBJECT H   
1 68698U 26080H   26198.73397818  .00002108  00000+0  13743-3 0  9996
2 68698  97.6635 274.3604 0014772 328.0239  32.0092 15.08938632 14230
