{"fetched_at":"2026-07-20T18:29:29.624Z","source":"https://celestrak.org/NORAD/elements/gp.php?NAME=JILIN&FORMAT=JSON","constellation":"jilin-1-gaofen","records":[{"OBJECT_NAME":"JILIN-1 GAOFEN 03D51","OBJECT_ID":"2022-155B","EPOCH":"2026-07-20T07:24:38.987712","CLASSIFICATION_TYPE":"U","MEAN_MOTION":15.65242674,"ECCENTRICITY":0.00046434,"INCLINATION":97.6265,"RA_OF_ASC_NODE":348.7494,"ARG_OF_PERICENTER":213.0573,"MEAN_ANOMALY":147.0396,"EPHEMERIS_TYPE":0,"NORAD_CAT_ID":54252,"ELEMENT_SET_NO":999,"REV_AT_EPOCH":20492,"BSTAR":0.00038396459,"MEAN_MOTION_DOT":0.00038015,"MEAN_MOTION_DDOT":0},{"OBJECT_NAME":"JILIN-1 GAOFEN 03D53","OBJECT_ID":"2022-155C","EPOCH":"2026-07-20T07:43:24.432384","CLASSIFICATION_TYPE":"U","MEAN_MOTION":15.54638972,"ECCENTRICITY":0.00051603,"INCLINATION":97.6256,"RA_OF_ASC_NODE":343.8782,"ARG_OF_PERICENTER":229.989,"MEAN_ANOMALY":130.091,"EPHEMERIS_TYPE":0,"NORAD_CAT_ID":54253,"ELEMENT_SET_NO":999,"REV_AT_EPOCH":20463,"BSTAR":0.00034545072,"MEAN_MOTION_DOT":0.00022794,"MEAN_MOTION_DDOT":0},{"OBJECT_NAME":"JILIN-1 GAOFEN 03D52","OBJECT_ID":"2022-155E","EPOCH":"2026-07-20T07:21:14.699232","CLASSIFICATION_TYPE":"U","MEAN_MOTION":15.62358432,"ECCENTRICITY":0.00040264,"INCLINATION":97.624,"RA_OF_ASC_NODE":346.9326,"ARG_OF_PERICENTER":226.9446,"MEAN_ANOMALY":133.1475,"EPHEMERIS_TYPE":0,"NORAD_CAT_ID":54255,"ELEMENT_SET_NO":999,"REV_AT_EPOCH":20487,"BSTAR":0.00036838478,"MEAN_MOTION_DOT":0.0003254,"MEAN_MOTION_DDOT":0},{"OBJECT_NAME":"JILIN-1 GAOFEN 03D50","OBJECT_ID":"2022-167J","EPOCH":"2026-07-20T07:30:33.391872","CLASSIFICATION_TYPE":"U","MEAN_MOTION":15.35124183,"ECCENTRICITY":0.00047363,"INCLINATION":97.6864,"RA_OF_ASC_NODE":10.5305,"ARG_OF_PERICENTER":4.2223,"MEAN_ANOMALY":355.9059,"EPHEMERIS_TYPE":0,"NORAD_CAT_ID":54690,"ELEMENT_SET_NO":999,"REV_AT_EPOCH":20043,"BSTAR":0.00018506653,"MEAN_MOTION_DOT":0.00006223,"MEAN_MOTION_DDOT":0},{"OBJECT_NAME":"JILIN-1 GAOFEN 03D47","OBJECT_ID":"2022-167L","EPOCH":"2026-07-20T07:39:36.887616","CLASSIFICATION_TYPE":"U","MEAN_MOTION":15.34403264,"ECCENTRICITY":0.00073293,"INCLINATION":97.6961,"RA_OF_ASC_NODE":12.2758,"ARG_OF_PERICENTER":12.2895,"MEAN_ANOMALY":347.8525,"EPHEMERIS_TYPE":0,"NORAD_CAT_ID":54692,"ELEMENT_SET_NO":999,"REV_AT_EPOCH":20042,"BSTAR":0.00018128694,"MEAN_MOTION_DOT":0.00005958,"MEAN_MOTION_DDOT":0},{"OBJECT_NAME":"JILIN-1 GAOFEN 03D49","OBJECT_ID":"2022-167N","EPOCH":"2026-07-20T07:44:22.283232","CLASSIFICATION_TYPE":"U","MEAN_MOTION":15.38114438,"ECCENTRICITY":0.00056372,"INCLINATION":97.6838,"RA_OF_ASC_NODE":12.9577,"ARG_OF_PERICENTER":33.4027,"MEAN_ANOMALY":326.7572,"EPHEMERIS_TYPE":0,"NORAD_CAT_ID":54694,"ELEMENT_SET_NO":999,"REV_AT_EPOCH":20058,"BSTAR":0.00018882551,"MEAN_MOTION_DOT":0.00006998,"MEAN_MOTION_DDOT":0},{"OBJECT_NAME":"JILIN-1 GAOFEN 03D48","OBJECT_ID":"2022-167P","EPOCH":"2026-07-20T07:16:18.226272","CLASSIFICATION_TYPE":"U","MEAN_MOTION":15.35857425,"ECCENTRICITY":0.00059689,"INCLINATION":97.691,"RA_OF_ASC_NODE":12.25,"ARG_OF_PERICENTER":12.9421,"MEAN_ANOMALY":347.1974,"EPHEMERIS_TYPE":0,"NORAD_CAT_ID":54695,"ELEMENT_SET_NO":999,"REV_AT_EPOCH":20047,"BSTAR":0.0001874709,"MEAN_MOTION_DOT":0.00006457,"MEAN_MOTION_DDOT":0},{"OBJECT_NAME":"JILIN GAOFEN OBJECT A","OBJECT_ID":"2026-080A","EPOCH":"2026-07-17T17:16:13.911744","CLASSIFICATION_TYPE":"U","MEAN_MOTION":15.09211185,"ECCENTRICITY":0.00109955,"INCLINATION":97.6607,"RA_OF_ASC_NODE":274.1951,"ARG_OF_PERICENTER":325.9072,"MEAN_ANOMALY":34.1449,"EPHEMERIS_TYPE":0,"NORAD_CAT_ID":68691,"ELEMENT_SET_NO":999,"REV_AT_EPOCH":1426,"BSTAR":0.00012113513,"MEAN_MOTION_DOT":0.00001863,"MEAN_MOTION_DDOT":0},{"OBJECT_NAME":"JILIN GAOFEN OBJECT B","OBJECT_ID":"2026-080B","EPOCH":"2026-07-20T05:19:45.637536","CLASSIFICATION_TYPE":"U","MEAN_MOTION":15.08926913,"ECCENTRICITY":0.00155717,"INCLINATION":97.6582,"RA_OF_ASC_NODE":276.7043,"ARG_OF_PERICENTER":294.6551,"MEAN_ANOMALY":65.3055,"EPHEMERIS_TYPE":0,"NORAD_CAT_ID":68692,"ELEMENT_SET_NO":999,"REV_AT_EPOCH":1464,"BSTAR":0.00019398223,"MEAN_MOTION_DOT":0.00003003,"MEAN_MOTION_DDOT":0},{"OBJECT_NAME":"JILIN GAOFEN OBJECT C","OBJECT_ID":"2026-080C","EPOCH":"2026-07-17T17:15:07.778592","CLASSIFICATION_TYPE":"U","MEAN_MOTION":15.0891057,"ECCENTRICITY":0.00131651,"INCLINATION":97.659,"RA_OF_ASC_NODE":274.1766,"ARG_OF_PERICENTER":305.9926,"MEAN_ANOMALY":54.0081,"EPHEMERIS_TYPE":0,"NORAD_CAT_ID":68693,"ELEMENT_SET_NO":999,"REV_AT_EPOCH":1426,"BSTAR":0.00012645548,"MEAN_MOTION_DOT":0.00001932,"MEAN_MOTION_DDOT":0},{"OBJECT_NAME":"JILIN GAOFEN OBJECT D","OBJECT_ID":"2026-080D","EPOCH":"2026-07-20T06:56:09.542976","CLASSIFICATION_TYPE":"U","MEAN_MOTION":15.08986117,"ECCENTRICITY":0.00161867,"INCLINATION":97.6646,"RA_OF_ASC_NODE":276.8496,"ARG_OF_PERICENTER":306.5146,"MEAN_ANOMALY":53.4591,"EPHEMERIS_TYPE":0,"NORAD_CAT_ID":68694,"ELEMENT_SET_NO":999,"REV_AT_EPOCH":1463,"BSTAR":0.00019434298,"MEAN_MOTION_DOT":0.00003014,"MEAN_MOTION_DDOT":0},{"OBJECT_NAME":"JILIN GAOFEN OBJECT E","OBJECT_ID":"2026-080E","EPOCH":"2026-07-20T06:29:58.391808","CLASSIFICATION_TYPE":"U","MEAN_MOTION":15.08947563,"ECCENTRICITY":0.0013405,"INCLINATION":97.6629,"RA_OF_ASC_NODE":276.8504,"ARG_OF_PERICENTER":317.5507,"MEAN_ANOMALY":42.4683,"EPHEMERIS_TYPE":0,"NORAD_CAT_ID":68695,"ELEMENT_SET_NO":999,"REV_AT_EPOCH":1461,"BSTAR":0.00016016065,"MEAN_MOTION_DOT":0.00002468,"MEAN_MOTION_DDOT":0},{"OBJECT_NAME":"JILIN GAOFEN OBJECT F","OBJECT_ID":"2026-080F","EPOCH":"2026-07-20T08:04:08.029920","CLASSIFICATION_TYPE":"U","MEAN_MOTION":15.08931534,"ECCENTRICITY":0.00120657,"INCLINATION":97.66,"RA_OF_ASC_NODE":276.882,"ARG_OF_PERICENTER":320.1807,"MEAN_ANOMALY":39.8535,"EPHEMERIS_TYPE":0,"NORAD_CAT_ID":68696,"ELEMENT_SET_NO":999,"REV_AT_EPOCH":1462,"BSTAR":0.00015308098,"MEAN_MOTION_DOT":0.00002354,"MEAN_MOTION_DDOT":0},{"OBJECT_NAME":"JILIN GAOFEN OBJECT G","OBJECT_ID":"2026-080G","EPOCH":"2026-07-20T06:08:38.063040","CLASSIFICATION_TYPE":"U","MEAN_MOTION":15.08921884,"ECCENTRICITY":0.00142986,"INCLINATION":97.6642,"RA_OF_ASC_NODE":276.8891,"ARG_OF_PERICENTER":316.7046,"MEAN_ANOMALY":43.3057,"EPHEMERIS_TYPE":0,"NORAD_CAT_ID":68697,"ELEMENT_SET_NO":999,"REV_AT_EPOCH":1461,"BSTAR":0.00014398395,"MEAN_MOTION_DOT":0.00002211,"MEAN_MOTION_DDOT":0},{"OBJECT_NAME":"JILIN GAOFEN OBJECT H","OBJECT_ID":"2026-080H","EPOCH":"2026-07-17T17:36:55.714752","CLASSIFICATION_TYPE":"U","MEAN_MOTION":15.08938632,"ECCENTRICITY":0.00147724,"INCLINATION":97.6635,"RA_OF_ASC_NODE":274.3604,"ARG_OF_PERICENTER":328.0239,"MEAN_ANOMALY":32.0092,"EPHEMERIS_TYPE":0,"NORAD_CAT_ID":68698,"ELEMENT_SET_NO":999,"REV_AT_EPOCH":1423,"BSTAR":0.00013742567,"MEAN_MOTION_DOT":0.00002108,"MEAN_MOTION_DDOT":0}]}
